OBJECT_NAME,OBJECT_ID,EPOCH,MEAN_MOTION,ECCENTRICITY,INCLINATION,RA_OF_ASC_NODE,ARG_OF_PERICENTER,MEAN_ANOMALY,EPHEMERIS_TYPE,CLASSIFICATION_TYPE,NORAD_CAT_ID,ELEMENT_SET_NO,REV_AT_EPOCH,BSTAR,MEAN_MOTION_DOT,MEAN_MOTION_DDOT
ONEWEB-0309,2021-075W,2026-06-18T07:17:46.294656,13.17648573,.00020043,87.9132,5.6407,102.8291,257.3064,0,U,49095,999,23372,-.71281649E-4,-.15E-6,0
ONEWEB-0310,2021-075X,2026-06-18T10:55:46.198848,13.12442537,.00018301,87.8937,350.4281,91.5479,268.5860,0,U,49096,999,23535,-.15265856E-2,-.536E-5,0
ONEWEB-0311,2021-075Y,2026-06-18T14:44:52.431936,13.17697299,.00025964,87.9134,5.5785,73.8462,286.2955,0,U,49097,999,23381,-.24092238E-1,-.9338E-4,0
ONEWEB-0312,2021-075Z,2026-06-18T02:21:19.867968,13.17653192,.00021996,87.9131,5.6919,91.0030,269.1353,0,U,49098,999,23372,-.51430414E-4,-.7E-7,0
ONEWEB-0313,2021-075AA,2026-06-18T02:28:24.478176,13.17648944,.00020072,87.9126,5.6967,86.7239,273.4123,0,U,49099,999,23371,-.34695424E-4,-.1E-7,0
ONEWEB-0314,2021-075AB,2026-06-18T12:36:06.633792,13.17649055,.0002261,87.9141,5.5855,90.8775,269.2616,0,U,49100,999,23374,-.10207705E-3,-.27E-6,0
ONEWEB-0315,2021-075AC,2026-06-18T01:07:50.564928,13.12442597,.00020595,87.8948,350.4731,81.6560,278.4802,0,U,49101,999,23528,.1922866E-3,.82E-6,0
ONEWEB-0316,2021-075AD,2026-06-18T08:56:53.265408,13.18687067,.00019127,87.9165,335.2198,91.2825,268.8526,0,U,49102,999,23736,-.97328549E-4,-.25E-6,0
ONEWEB-0317,2021-075AE,2026-06-18T10:21:37.843200,13.12442541,.00015917,87.8950,350.4206,114.5027,245.6268,0,U,49103,999,23535,.32086886E-3,.128E-5,0
ONEWEB-0318,2021-075AF,2026-06-18T10:41:18.084480,13.18685793,.00019946,87.9171,335.2071,86.8116,273.3244,0,U,49104,999,23733,-.1068018E-3,-.29E-6,0
ONEWEB-0319,2021-075AG,2026-06-18T00:12:31.819104,13.17649415,.00021755,87.9133,5.7044,76.2545,283.8828,0,U,49105,999,23371,.28884052E-4,.24E-6,0
ONEWEB-0323,2021-075AH,2026-06-18T11:44:34.861632,13.12443654,.0002284,87.8949,350.3903,81.3603,278.7784,0,U,49106,999,23472,.10851813E-2,.403E-5,0
ONEWEB-0329,2021-075AJ,2026-06-18T13:10:07.119264,13.17649405,.00020278,87.9133,5.5977,88.8871,271.2493,0,U,49107,999,23376,.53224379E-4,.34E-6,0
ONEWEB-0330,2021-075AK,2026-06-18T00:58:32.995488,13.17848881,.00020367,87.9135,5.7192,91.8176,268.3189,0,U,49108,999,23373,.61247942E-1,.23926E-3,0
ONEWEB-0292,2021-083A,2026-06-17T22:15:22.288320,13.13471548,.00019456,87.8952,320.0907,91.8881,268.2470,0,U,49186,999,23102,-.10484959E-3,-.26E-6,0
ONEWEB-0303,2021-083B,2026-06-18T10:36:26.416224,13.18686450,.00019564,87.9167,335.2064,89.1110,271.0247,0,U,49187,999,23014,-.10859448E-3,-.3E-6,0
ONEWEB-0306,2021-083C,2026-06-17T23:26:17.520288,13.18687107,.00017749,87.9170,335.2871,99.3372,260.7961,0,U,49188,999,23012,-.11455505E-3,-.32E-6,0
ONEWEB-0307,2021-083D,2026-06-18T09:05:00.217536,13.13470640,.00019539,87.8955,319.9980,94.4316,265.7036,0,U,49189,999,23108,-.61498342E-3,-.212E-5,0
ONEWEB-0320,2021-083E,2026-06-18T10:50:59.892576,13.18685951,.00018201,87.9161,335.2103,94.4654,265.6686,0,U,49190,999,23014,-.9774018E-5,.9E-7,0
ONEWEB-0321,2021-083F,2026-06-18T13:33:07.341984,13.20772753,.00018664,87.9196,274.1603,108.0638,252.0699,0,U,49191,999,23701,.25839377E-3,.118E-5,0
ONEWEB-0322,2021-083G,2026-06-18T08:58:52.907808,13.13468713,.00014359,87.8952,319.9992,103.1670,256.9619,0,U,49192,999,23107,-.72312837E-3,-.251E-5,0
ONEWEB-0324,2021-083H,2026-06-17T23:16:34.989024,13.18670962,.00024021,87.9172,335.2938,94.5937,265.5470,0,U,49193,999,23010,.70353253E-2,.2787E-4,0
ONEWEB-0325,2021-083J,2026-06-18T10:17:00.839616,13.18685479,.00018189,87.9162,335.2108,91.1582,268.9758,0,U,49194,999,23017,.2148985E-4,.21E-6,0
ONEWEB-0326,2021-083K,2026-06-18T10:39:04.135104,13.18685014,.00019762,87.9171,335.2055,85.7761,274.3597,0,U,49195,999,23016,-.10161169E-3,-.27E-6,0
ONEWEB-0327,2021-083L,2026-06-18T10:38:39.888672,13.18685080,.0001907,87.9163,335.2098,80.8919,279.2429,0,U,49196,999,23018,-.12692045E-4,.8E-7,0
ONEWEB-0328,2021-083M,2026-06-18T08:44:16.732320,13.13469845,.0001957,87.8963,319.9741,99.2961,260.8389,0,U,49197,999,23105,-.61497549E-3,-.212E-5,0
ONEWEB-0331,2021-083N,2026-06-18T10:29:08.729376,13.18686469,.00020933,87.9171,335.2007,85.9151,274.2220,0,U,49198,999,23017,-.32236639E-4,0,0
ONEWEB-0333,2021-083P,2026-06-17T23:28:29.129952,13.13469895,.0001828,87.8953,320.0772,95.2249,264.9089,0,U,49199,999,23101,-.79466179E-3,-.277E-5,0
ONEWEB-0334,2021-083Q,2026-06-18T13:55:22.992672,13.21260465,.00014613,87.9194,274.1679,129.8853,230.2409,0,U,49200,999,23697,.15405765E-4,.19E-6,0
ONEWEB-0335,2021-083R,2026-06-18T08:29:39.228000,13.13470444,.00019869,87.8955,319.9994,92.9004,267.2353,0,U,49201,999,23107,-.98731512E-4,-.23E-6,0
