[
  {
    "name": "ONEWEB-0309",
    "noradId": "49095",
    "line1": "1 49095U 21075W   26169.30400804 -.00000015  00000+0 -71282-4 0  9996",
    "line2": "2 49095  87.9132   5.6407 0002004 102.8291 257.3064 13.17648573233729"
  },
  {
    "name": "ONEWEB-0310",
    "noradId": "49096",
    "line1": "1 49096U 21075X   26169.45539582 -.00000536  00000+0 -15266-2 0  9995",
    "line2": "2 49096  87.8937 350.4281 0001830  91.5479 268.5860 13.12442537235357"
  },
  {
    "name": "ONEWEB-0311",
    "noradId": "49097",
    "line1": "1 49097U 21075Y   26169.61449574 -.00009338  00000+0 -24092-1 0  9990",
    "line2": "2 49097  87.9134   5.5785 0002596  73.8462 286.2955 13.17697299233813"
  },
  {
    "name": "ONEWEB-0312",
    "noradId": "49098",
    "line1": "1 49098U 21075Z   26169.09814662 -.00000007  00000+0 -51430-4 0  9990",
    "line2": "2 49098  87.9131   5.6919 0002199  91.0030 269.1353 13.17653192233729"
  },
  {
    "name": "ONEWEB-0313",
    "noradId": "49099",
    "line1": "1 49099U 21075AA  26169.10306109 -.00000001  00000+0 -34695-4 0  9993",
    "line2": "2 49099  87.9126   5.6967 0002007  86.7239 273.4123 13.17648944233718"
  },
  {
    "name": "ONEWEB-0314",
    "noradId": "49100",
    "line1": "1 49100U 21075AB  26169.52507678 -.00000027  00000+0 -10208-3 0  9997",
    "line2": "2 49100  87.9141   5.5855 0002261  90.8775 269.2616 13.17649055233743"
  },
  {
    "name": "ONEWEB-0315",
    "noradId": "49101",
    "line1": "1 49101U 21075AC  26169.04711302  .00000082  00000+0  19229-3 0  9997",
    "line2": "2 49101  87.8948 350.4731 0002059  81.6560 278.4802 13.12442597235285"
  },
  {
    "name": "ONEWEB-0316",
    "noradId": "49102",
    "line1": "1 49102U 21075AD  26169.37283872 -.00000025  00000+0 -97329-4 0  9997",
    "line2": "2 49102  87.9165 335.2198 0001912  91.2825 268.8526 13.18687067237360"
  },
  {
    "name": "ONEWEB-0317",
    "noradId": "49103",
    "line1": "1 49103U 21075AE  26169.43168800  .00000128  00000+0  32087-3 0  9999",
    "line2": "2 49103  87.8950 350.4206 0001591 114.5027 245.6268 13.12442541235350"
  },
  {
    "name": "ONEWEB-0318",
    "noradId": "49104",
    "line1": "1 49104U 21075AF  26169.44534820 -.00000029  00000+0 -10680-3 0  9997",
    "line2": "2 49104  87.9171 335.2071 0001994  86.8116 273.3244 13.18685793237331"
  },
  {
    "name": "ONEWEB-0319",
    "noradId": "49105",
    "line1": "1 49105U 21075AG  26169.00870161  .00000024  00000+0  28884-4 0  9990",
    "line2": "2 49105  87.9133   5.7044 0002175  76.2545 283.8828 13.17649415233712"
  },
  {
    "name": "ONEWEB-0323",
    "noradId": "49106",
    "line1": "1 49106U 21075AH  26169.48929238  .00000403  00000+0  10852-2 0  9998",
    "line2": "2 49106  87.8949 350.3903 0002284  81.3603 278.7784 13.12443654234721"
  },
  {
    "name": "ONEWEB-0329",
    "noradId": "49107",
    "line1": "1 49107U 21075AJ  26169.54869351  .00000034  00000+0  53224-4 0  9997",
    "line2": "2 49107  87.9133   5.5977 0002027  88.8871 271.2493 13.17649405233767"
  },
  {
    "name": "ONEWEB-0330",
    "noradId": "49108",
    "line1": "1 49108U 21075AK  26169.04065967  .00023926  00000+0  61248-1 0  9991",
    "line2": "2 49108  87.9135   5.7192 0002036  91.8176 268.3189 13.17848881233738"
  },
  {
    "name": "ONEWEB-0292",
    "noradId": "49186",
    "line1": "1 49186U 21083A   26168.92734130 -.00000026  00000+0 -10485-3 0  9994",
    "line2": "2 49186  87.8952 320.0907 0001945  91.8881 268.2470 13.13471548231028"
  },
  {
    "name": "ONEWEB-0303",
    "noradId": "49187",
    "line1": "1 49187U 21083B   26169.44197241 -.00000030  00000+0 -10859-3 0  9999",
    "line2": "2 49187  87.9167 335.2064 0001956  89.1110 271.0247 13.18686450230148"
  },
  {
    "name": "ONEWEB-0306",
    "noradId": "49188",
    "line1": "1 49188U 21083C   26168.97659167 -.00000032  00000+0 -11456-3 0  9993",
    "line2": "2 49188  87.9170 335.2871 0001774  99.3372 260.7961 13.18687107230126"
  },
  {
    "name": "ONEWEB-0307",
    "noradId": "49189",
    "line1": "1 49189U 21083D   26169.37847474 -.00000212  00000+0 -61498-3 0  9990",
    "line2": "2 49189  87.8955 319.9980 0001953  94.4316 265.7036 13.13470640231081"
  },
  {
    "name": "ONEWEB-0320",
    "noradId": "49190",
    "line1": "1 49190U 21083E   26169.45208209  .00000009  00000+0 -97740-5 0  9992",
    "line2": "2 49190  87.9161 335.2103 0001820  94.4654 265.6686 13.18685951230143"
  },
  {
    "name": "ONEWEB-0321",
    "noradId": "49191",
    "line1": "1 49191U 21083F   26169.56466831  .00000118  00000+0  25839-3 0  9990",
    "line2": "2 49191  87.9196 274.1603 0001866 108.0638 252.0699 13.20772753237019"
  },
  {
    "name": "ONEWEB-0322",
    "noradId": "49192",
    "line1": "1 49192U 21083G   26169.37422347 -.00000251  00000+0 -72313-3 0  9993",
    "line2": "2 49192  87.8952 319.9992 0001435 103.1670 256.9619 13.13468713231077"
  },
  {
    "name": "ONEWEB-0324",
    "noradId": "49193",
    "line1": "1 49193U 21083H   26168.96984941  .00002787  00000+0  70353-2 0  9996",
    "line2": "2 49193  87.9172 335.2938 0002402  94.5937 265.5470 13.18670962230108"
  },
  {
    "name": "ONEWEB-0325",
    "noradId": "49194",
    "line1": "1 49194U 21083J   26169.42848194  .00000021  00000+0  21490-4 0  9997",
    "line2": "2 49194  87.9162 335.2108 0001818  91.1582 268.9758 13.18685479230178"
  },
  {
    "name": "ONEWEB-0326",
    "noradId": "49195",
    "line1": "1 49195U 21083K   26169.44379786 -.00000027  00000+0 -10161-3 0  9996",
    "line2": "2 49195  87.9171 335.2055 0001976  85.7761 274.3597 13.18685014230169"
  },
  {
    "name": "ONEWEB-0327",
    "noradId": "49196",
    "line1": "1 49196U 21083L   26169.44351723  .00000008  00000+0 -12692-4 0  9998",
    "line2": "2 49196  87.9163 335.2098 0001907  80.8919 279.2429 13.18685080230186"
  },
  {
    "name": "ONEWEB-0328",
    "noradId": "49197",
    "line1": "1 49197U 21083M   26169.36408255 -.00000212  00000+0 -61498-3 0  9998",
    "line2": "2 49197  87.8963 319.9741 0001957  99.2961 260.8389 13.13469845231056"
  },
  {
    "name": "ONEWEB-0331",
    "noradId": "49198",
    "line1": "1 49198U 21083N   26169.43690659  .00000000  00000+0 -32237-4 0  9992",
    "line2": "2 49198  87.9171 335.2007 0002093  85.9151 274.2220 13.18686469230173"
  },
  {
    "name": "ONEWEB-0333",
    "noradId": "49199",
    "line1": "1 49199U 21083P   26168.97811493 -.00000277  00000+0 -79466-3 0  9993",
    "line2": "2 49199  87.8953 320.0772 0001828  95.2249 264.9089 13.13469895231019"
  },
  {
    "name": "ONEWEB-0334",
    "noradId": "49200",
    "line1": "1 49200U 21083Q   26169.58012723  .00000019  00000+0  15406-4 0  9990",
    "line2": "2 49200  87.9194 274.1679 0001461 129.8853 230.2409 13.21260465236976"
  },
  {
    "name": "ONEWEB-0335",
    "noradId": "49201",
    "line1": "1 49201U 21083R   26169.35392625 -.00000023  00000+0 -98732-4 0  9998",
    "line2": "2 49201  87.8955 319.9994 0001986  92.9004 267.2353 13.13470444231074"
  }
]